OBJECT_NAME,OBJECT_ID,EPOCH,MEAN_MOTION,ECCENTRICITY,INCLINATION,RA_OF_ASC_NODE,ARG_OF_PERICENTER,MEAN_ANOMALY,EPHEMERIS_TYPE,CLASSIFICATION_TYPE,NORAD_CAT_ID,ELEMENT_SET_NO,REV_AT_EPOCH,BSTAR,MEAN_MOTION_DOT,MEAN_MOTION_DDOT
IRIDIUM 135,2017-083A,2026-07-18T06:26:23.152128,14.34217823,.00021097,86.3983,309.0236,95.3955,264.7482,0,U,43070,999,44860,-.3281544E-5,.11E-6,0
IRIDIUM 138,2017-083B,2026-07-18T07:02:54.977568,14.34213859,.00017628,86.4005,308.7129,102.7020,257.4373,0,U,43071,999,44859,.43471835E-4,.142E-5,0
IRIDIUM 116,2017-083C,2026-07-18T06:17:15.141984,14.34217003,.00025203,86.3985,309.0114,99.1907,260.9574,0,U,43072,999,44862,.37861376E-4,.126E-5,0
IRIDIUM 130,2017-083D,2026-07-18T07:12:03.305664,14.34218687,.0002325,86.3994,309.2742,100.4244,259.7214,0,U,43073,999,44857,.43631597E-4,.142E-5,0
IRIDIUM 151,2017-083E,2026-07-18T06:35:31.201152,14.34218600,.00023501,86.3983,309.0653,96.8836,263.2627,0,U,43074,999,44859,.29952764E-4,.104E-5,0
IRIDIUM 134,2017-083F,2026-07-18T07:30:19.191168,14.34217871,.00022521,86.3990,309.0574,96.4576,263.6876,0,U,43075,999,44856,.8207312E-5,.43E-6,0
IRIDIUM 137,2017-083G,2026-07-18T06:08:07.256256,14.34217727,.00025662,86.3987,309.1750,92.1232,268.0258,0,U,43076,999,44862,-.7157918E-5,0,0
IRIDIUM 141,2017-083H,2026-07-18T05:58:59.157984,14.34217797,.00021844,86.3985,309.0063,94.0668,266.0777,0,U,43077,999,44862,.14183047E-4,.59E-6,0
IRIDIUM 153,2017-083J,2026-07-18T04:50:07.389024,14.34217855,.00021451,86.3957,277.5050,95.5943,264.5497,0,U,43078,999,44972,.8705534E-5,.44E-6,0
IRIDIUM 131,2017-083K,2026-07-18T07:21:11.168064,14.34217603,.00021011,86.3986,309.1705,94.2452,265.8984,0,U,43079,999,44856,-.16353309E-4,-.26E-6,0
IRIDIUM 144,2018-030A,2026-07-17T22:17:23.313120,14.34218476,.00024068,86.3955,277.5474,96.2387,263.9083,0,U,43249,999,43454,.24994429E-4,.9E-6,0
IRIDIUM 149,2018-030B,2026-07-18T05:08:23.433504,14.34217757,.00022458,86.3954,277.3947,93.7263,266.4190,0,U,43250,999,43460,.2885026E-5,.28E-6,0
IRIDIUM 157,2018-030C,2026-07-18T03:55:19.512192,14.34218715,.00022774,86.3957,277.4700,94.3344,265.8112,0,U,43251,999,43457,.40652839E-4,.134E-5,0
IRIDIUM 140,2018-030D,2026-07-18T04:22:43.592736,14.34218345,.0002256,86.3957,277.4744,95.8566,264.2887,0,U,43252,999,43463,.41450217E-4,.136E-5,0
IRIDIUM 145,2018-030E,2026-07-18T04:04:27.451488,14.34217612,.00025601,86.3956,277.4521,98.2991,261.8495,0,U,43253,999,43456,.22294554E-4,.82E-6,0
IRIDIUM 146,2018-030F,2026-07-18T05:17:31.461792,14.34217593,.00023887,86.3956,277.4429,96.1620,263.9848,0,U,43254,999,43458,.8661544E-5,.44E-6,0
IRIDIUM 148,2018-030G,2026-07-18T04:31:51.566592,14.34218713,.0002342,86.3957,277.4995,93.2005,266.9459,0,U,43255,999,43461,.40797235E-4,.134E-5,0
IRIDIUM 142,2018-030H,2026-07-18T05:26:39.466752,14.34217782,.00024412,86.3953,277.3715,95.4896,264.6578,0,U,43256,999,43458,.2949943E-5,.28E-6,0
IRIDIUM 150,2018-030J,2026-07-18T04:40:59.369376,14.34217578,.00023041,86.3957,277.5022,96.3242,263.8216,0,U,43257,999,43460,.37798757E-4,.126E-5,0
IRIDIUM 143,2018-030K,2026-07-18T04:13:35.492736,14.34218072,.00023731,86.3960,277.6040,96.8677,263.2788,0,U,43258,999,43453,.25209343E-4,.9E-6,0
IRIDIUM 161,2018-047C,2026-07-18T03:50:13.647552,14.43276571,.00022068,86.4458,75.5179,80.7176,279.4274,0,U,43478,999,42960,.38959728E-4,.151E-5,0
IRIDIUM 152,2018-047D,2026-07-18T03:34:18.245856,14.34217650,.00020168,86.3932,75.3835,83.4317,276.7109,0,U,43479,999,42692,-.4805855E-4,-.115E-5,0
IRIDIUM 147,2018-047E,2026-07-18T03:43:26.275872,14.34217576,.00022915,86.3935,75.3868,88.2487,271.8972,0,U,43480,999,42692,.15504344E-4,.63E-6,0
IRIDIUM 110,2018-047F,2026-07-18T03:52:33.953376,14.34219246,.00020586,86.3938,75.4769,77.7059,282.4367,0,U,43481,999,42691,.38172665E-4,.127E-5,0
IRIDIUM 162,2018-047G,2026-07-18T03:41:09.291264,14.43279383,.00021963,86.4457,75.4110,87.0114,273.1338,0,U,43482,999,42959,.44093483E-4,.169E-5,0
IRIDIUM 160,2018-061A,2026-07-18T02:34:34.430880,14.34217724,.00022179,86.3939,43.8632,86.7202,273.4247,0,U,43569,999,41780,.34046386E-4,.115E-5,0
IRIDIUM 166,2018-061B,2026-07-18T01:30:38.492928,14.34217676,.0002284,86.3937,43.8319,89.7406,270.4052,0,U,43570,999,41782,-.622224E-6,.18E-6,0
IRIDIUM 158,2018-061C,2026-07-18T00:44:58.431840,14.34217842,.00021067,86.3938,43.8546,88.5076,271.6361,0,U,43571,999,41778,.6470522E-5,.38E-6,0
IRIDIUM 165,2018-061D,2026-07-18T03:01:58.544256,14.34217667,.00022838,86.3941,43.8625,90.1141,270.0316,0,U,43572,999,41782,.13566105E-4,.58E-6,0
IRIDIUM 155,2018-061E,2026-07-18T02:07:10.474752,14.34217546,.00021437,86.3936,43.7455,90.7984,269.3457,0,U,43573,999,41778,.1368932E-5,.24E-6,0
